{"fetched_at":"2026-03-29T02:12:04Z","count":15717,"tles":[{"name":"GSAT0226 (GALILEO 31)","line1":"1 61183U 24167B   26086.54056287 -.00000012  00000+0  00000+0 0  9990","line2":"2 61183  55.2106 223.5582 0001564 156.5708 194.8874  1.70474116  9455","category":"GPS"}]}