{
  "norad_id": 61183,
  "name": "GSAT0226 (GALILEO 31)",
  "history": [
    {
      "epoch": "2026-03-27T12:58:24.631968Z",
      "apogee_km": 23226.799117725768,
      "perigee_km": 23217.540141811976,
      "latitude_deg": -6.979238377305442,
      "longitude_deg": -160.90143904430963,
      "height_km": 23228.121361525533,
      "semi_major_axis_km": 29600.30662976887,
      "eccentricity": 0.0001564,
      "inclination_deg": 55.2106,
      "raan_deg": 223.5582,
      "arg_perigee_deg": 156.5708,
      "mean_anomaly_deg": 194.8874,
      "mean_motion_rev_day": 1.70474116
    }
  ]
}